H1 CPF 01  gfz 2022 03 01 01  5601 terrasarx 
H2 0702601  6201 31698    2022 03 01 00 59 42 2022 03 06 00 00 42   120 1 1  0 0 0
H9
10 0 59639  86382.000000  0      55831.767  -6889431.039    -35021.206
10 0 59640    102.000000  0    -122274.079  -6832556.573    867896.397
10 0 59640    222.000000  0    -296174.000  -6653165.768   1755533.454
10 0 59640    342.000000  0    -460711.443  -6354487.758   2612255.826
10 0 59640    462.000000  0    -610969.729  -5941948.568   3422976.269
10 0 59640    582.000000  0    -742396.286  -5423063.875   4173426.903
10 0 59640    702.000000  0    -850918.592  -4807293.571   4850413.133
10 0 59640    822.000000  0    -933047.809  -4105859.656   5442046.577
10 0 59640    942.000000  0    -985967.956  -3331532.369   5937952.985
10 0 59640   1062.000000  0   -1007609.065  -2498387.282   6329450.300
10 0 59640   1182.000000  0    -996701.976  -1621542.689   6609692.696
10 0 59640   1302.000000  0    -952814.882   -716882.944   6773784.253
10 0 59640   1422.000000  0    -876371.811    199231.059   6818860.143
10 0 59640   1542.000000  0    -768651.325   1110257.810   6744133.527
10 0 59640   1662.000000  0    -631764.726   1999773.458   6550908.632
10 0 59640   1782.000000  0    -468614.998   2851767.449   6242559.269
10 0 59640   1902.000000  0    -282837.381   3650930.970   5824473.727
10 0 59640   2022.000000  0     -78722.782   4382934.662   5303965.746
10 0 59640   2142.000000  0     138875.459   5034689.823   4690152.844
10 0 59640   2262.000000  0     364649.856   5594590.998   3993802.151
10 0 59640   2382.000000  0     592959.043   6052728.856   3227144.044
10 0 59640   2502.000000  0     817958.177   6401078.077   2403663.900
10 0 59640   2622.000000  0    1033738.602   6633650.679   1537858.709
10 0 59640   2742.000000  0    1234469.376   6746604.532    644976.530
10 0 59640   2862.000000  0    1414539.679   6738310.739   -259259.681
10 0 59640   2982.000000  0    1568697.705   6609376.321  -1158937.201
10 0 59640   3102.000000  0    1692181.897   6362622.216  -2038241.405
10 0 59640   3222.000000  0    1780842.079   6003018.048  -2881740.731
10 0 59640   3342.000000  0    1831247.251   5537574.553  -3674663.018
10 0 59640   3462.000000  0    1840777.536   4975196.264  -4403156.885
10 0 59640   3582.000000  0    1807698.019   4326498.727  -5054531.848
10 0 59640   3702.000000  0    1731212.890   3603597.141  -5617472.975
10 0 59640   3822.000000  0    1611499.783   2819871.886  -6082228.905
10 0 59640   3942.000000  0    1449722.667   1989714.529  -6440769.972
10 0 59640   4062.000000  0    1248024.587   1128262.071  -6686914.734
10 0 59640   4182.000000  0    1009500.698    251123.117  -6816427.013
10 0 59640   4302.000000  0     738150.800   -625900.910  -6827080.964
10 0 59640   4422.000000  0     438812.805  -1487094.557  -6718693.858
10 0 59640   4542.000000  0     117078.793  -2317101.717  -6493127.702
10 0 59640   4662.000000  0    -220805.905  -3101192.367  -6154262.667
10 0 59640   4782.000000  0    -568060.349  -3825521.447  -5707937.840
10 0 59640   4902.000000  0    -917498.801  -4477372.038  -5161860.102
10 0 59640   5022.000000  0   -1261674.028  -5045381.856  -4525483.114
10 0 59640   5142.000000  0   -1593031.154  -5519748.414  -3809854.727
10 0 59640   5262.000000  0   -1904068.609  -5892407.726  -3027434.293
10 0 59640   5382.000000  0   -2187502.664  -6157182.490  -2191882.505
10 0 59640   5502.000000  0   -2436432.154  -6309896.630  -1317826.285
10 0 59640   5622.000000  0   -2644499.276  -6348452.396   -420601.582
10 0 59640   5742.000000  0   -2806042.294  -6272866.050    484021.033
10 0 59640   5862.000000  0   -2916235.682  -6085260.536   1380121.130
10 0 59640   5982.000000  0   -2971214.137  -5789815.715   2251917.625
10 0 59640   6102.000000  0   -2968177.041  -5392676.510   3084055.760
10 0 59640   6222.000000  0   -2905470.439  -4901822.079   3861884.980
10 0 59640   6342.000000  0   -2782644.741  -4326899.741   4571721.948
10 0 59640   6462.000000  0   -2600487.756  -3679027.985   5201093.603
10 0 59640   6582.000000  0   -2361031.697  -2970573.005   5738956.166
10 0 59640   6702.000000  0   -2067533.313  -2214905.155   6175885.022
10 0 59640   6822.000000  0   -1724429.166  -1426142.113   6504235.065
10 0 59640   6942.000000  0   -1337266.394   -618880.994   6718269.591
10 0 59640   7062.000000  0    -912611.404    192074.582   6814252.812
10 0 59640   7182.000000  0    -457938.830    991984.552   6790510.440
10 0 59640   7302.000000  0      18499.992   1766439.866   6647457.930
10 0 59640   7422.000000  0     507826.669   2501621.930   6387593.682
10 0 59640   7542.000000  0    1000700.621   3184548.972   6015457.584
10 0 59640   7662.000000  0    1487496.142   3803306.675   5537556.891
10 0 59640   7782.000000  0    1958489.330   4347259.983   4962258.459
10 0 59640   7902.000000  0    2404052.597   4807242.042   4299648.300
10 0 59640   8022.000000  0    2814851.883   5175714.838   3561358.578
10 0 59640   8142.000000  0    3182042.241   5446899.652   2760367.844
10 0 59640   8262.000000  0    3497460.206   5616877.486   1910772.471
10 0 59640   8382.000000  0    3753804.152   5683648.514   1027532.694
10 0 59640   8502.000000  0    3944798.516   5647154.168    126203.454
10 0 59640   8622.000000  0    4065340.042   5509259.077   -777348.423
10 0 59640   8742.000000  0    4111620.375   5273693.816  -1667231.543
10 0 59640   8862.000000  0    4081223.022   4945961.137  -2527817.263
10 0 59640   8982.000000  0    3973191.171   4533207.205  -3344020.722
10 0 59640   9102.000000  0    3788064.851   4044061.216  -4101568.865
10 0 59640   9222.000000  0    3527888.231   3488449.068  -4787248.885
10 0 59640   9342.000000  0    3196187.586   2877386.222  -5389135.035
10 0 59640   9462.000000  0    2797919.286   2222753.769  -5896788.737
10 0 59640   9582.000000  0    2339391.070   1537064.115  -6301429.613
10 0 59640   9702.000000  0    1828157.847    833220.699  -6596075.524
10 0 59640   9822.000000  0    1272896.010    124277.625  -6775651.015
10 0 59640   9942.000000  0     683256.923   -576797.965  -6837067.175
10 0 59640  10062.000000  0      69700.358  -1257358.544  -6779268.197
10 0 59640  10182.000000  0    -556686.345  -1905297.821  -6603246.106
10 0 59640  10302.000000  0   -1184383.214  -2509260.353  -6312026.828
10 0 59640  10422.000000  0   -1801644.795  -3058837.989  -5910624.052
10 0 59640  10542.000000  0   -2396714.713  -3544747.836  -5405961.479
10 0 59640  10662.000000  0   -2958046.472  -3958991.118  -4806765.763
10 0 59640  10782.000000  0   -3474527.763  -4294990.278  -4123427.113
10 0 59640  10902.000000  0   -3935701.766  -4547699.524  -3367828.737
10 0 59640  11022.000000  0   -4331981.810  -4713687.443  -2553148.286
10 0 59640  11142.000000  0   -4654854.753  -4791188.876  -1693632.382
10 0 59640  11262.000000  0   -4897067.521  -4780124.258   -804348.189
10 0 59640  11382.000000  0   -5052791.842  -4682085.446     99083.595
10 0 59640  11502.000000  0   -5117762.850  -4500288.117   1000769.451
10 0 59640  11622.000000  0   -5089386.882  -4239490.274   1884831.952
10 0 59640  11742.000000  0   -4966814.953  -3905878.656   2735698.875
10 0 59640  11862.000000  0   -4750980.727  -3506926.760   3538385.649
10 0 59640  11982.000000  0   -4444602.443  -3051228.605   4278765.706
10 0 59640  12102.000000  0   -4052147.807  -2548311.479   4943823.350
10 0 59640  12222.000000  0   -3579763.967  -2008433.730   5521881.837
10 0 59640  12342.000000  0   -3035176.288  -1442373.664   6002805.569
10 0 59640  12462.000000  0   -2427556.512   -861212.358   6378174.925
10 0 59640  12582.000000  0   -1767362.135   -276113.935   6641428.578
10 0 59640  12702.000000  0   -1066151.457    301889.514   6787970.531
10 0 59640  12822.000000  0    -336380.071    862104.053   6815244.597
10 0 59640  12942.000000  0     408820.148   1394370.994   6722776.440
10 0 59640  13062.000000  0    1155876.718   1889251.014   6512181.553
10 0 59640  13182.000000  0    1891023.141   2338191.684   6187138.073
10 0 59640  13302.000000  0    2600551.663   2733675.420   5753326.659
10 0 59640  13422.000000  0    3271069.976   3069347.468   5218338.014
10 0 59640  13542.000000  0    3889757.516   3340121.164   4591545.590
10 0 59640  13662.000000  0    4444613.220   3542257.321   3883946.039
10 0 59640  13782.000000  0    4924695.346   3673417.846   3107972.600
10 0 59640  13902.000000  0    5320345.360   3732691.234   2277275.236
10 0 59640  14022.000000  0    5623387.474   3720587.120   1406478.420
10 0 59640  14142.000000  0    5827302.239   3639002.728    510918.452
10 0 59640  14262.000000  0    5927368.061   3491159.895   -393634.871
10 0 59640  14382.000000  0    5920766.535   3281514.521  -1291264.711
10 0 59640  14502.000000  0    5806649.588   3015641.013  -2166195.764
10 0 59640  14622.000000  0    5586166.165   2700095.455  -3003078.105
10 0 59640  14742.000000  0    5262449.701   2342260.911  -3787260.846
10 0 59640  14862.000000  0    4840567.148   1950178.389  -4505050.563
10 0 59640  14982.000000  0    4327428.407   1532367.658  -5143948.675
10 0 59640  15102.000000  0    3731662.558   1097643.754  -5692861.433
10 0 59640  15222.000000  0    3063464.218    654933.572  -6142283.580
10 0 59640  15342.000000  0    2334411.885    213095.383  -6484452.150
10 0 59640  15462.000000  0    1557264.052   -219254.316  -6713468.533
10 0 59640  15582.000000  0     745737.139   -633904.594  -6825390.876
10 0 59640  15702.000000  0     -85734.722  -1023202.142  -6818294.821
10 0 59640  15822.000000  0    -922250.703  -1380188.192  -6692301.329
10 0 59640  15942.000000  0   -1748703.475  -1698719.535  -6449575.672
10 0 59640  16062.000000  0   -2550046.285  -1973572.586  -6094294.225
10 0 59640  16182.000000  0   -3311560.777  -2200527.910  -5632579.629
10 0 59640  16302.000000  0   -4019124.344  -2376435.760  -5072407.255
10 0 59640  16422.000000  0   -4659474.173  -2499260.710  -4423479.146
99
